NORAD_CAT_ID,OBJECT_NAME,OBJECT_TYPE,EPOCH,MEAN_MOTION,ECCENTRICITY,INCLINATION,RA_OF_ASC_NODE,ARG_OF_PERICENTER,MEAN_ANOMALY,BSTAR,MEAN_MOTION_DOT,MEAN_MOTION_DDOT,TLE_LINE0,TLE_LINE1,TLE_LINE2,SEMIMAJOR_AXIS,PERIOD,APOGEE,PERIGEE,DECAYED
55784.0,STARLINK-5797,PAYLOAD,2024-07-01 18:12:12,14.9832882,0.0002892,70.0011,317.5197,266.5211,93.5617,6.4093e-05,6.72e-06,0.0,0 STARLINK-5797,1 55784U 23028AV  24183.75847823  .00000672  00000-0  64093-4 0  9997,2 55784  70.0011 317.5197 0002892 266.5211  93.5617 14.98328820 74767,6950.197,96.107,574.072,570.052,0.0
55784.0,STARLINK-5797,PAYLOAD,2024-07-02 11:49:41,14.98322064,0.0002997,70.0009,315.6682,267.355,92.7266,1.8115e-05,1.23e-06,0.0,0 STARLINK-5797,1 55784U 23028AV  24184.49284454  .00000123  00000-0  18115-4 0  9999,2 55784  70.0009 315.6682 0002997 267.3550  92.7266 14.98322064 74870,6950.217,96.108,574.165,569.999,0.0
55784.0,STARLINK-5797,PAYLOAD,2024-07-02 15:01:57,14.98326511,0.0003146,70.0007,315.3315,268.838,91.2418,2.2396e-06,-6.6e-07,0.0,0 STARLINK-5797,1 55784U 23028AV  24184.62636265 -.00000066  00000-0  22396-5 0  9999,2 55784  70.0007 315.3315 0003146 268.8380  91.2418 14.98326511 74898,6950.204,96.107,574.255,569.882,0.0
55784.0,STARLINK-5797,PAYLOAD,2024-07-02 18:14:13,14.98326969,0.0002954,70.0007,314.994,265.1731,94.909,2.147e-05,1.63e-06,0.0,0 STARLINK-5797,1 55784U 23028AV  24184.75988198  .00000163  00000-0  21470-4 0  9996,2 55784  70.0007 314.9940 0002954 265.1731  94.9090 14.98326969 74919,6950.202,96.107,574.12,570.014,0.0
55784.0,STARLINK-5797,PAYLOAD,2024-07-03 11:51:42,14.98324616,0.0003232,70.0001,313.1422,270.2008,89.878,1.2798e-05,6e-07,0.0,0 STARLINK-5797,1 55784U 23028AV  24185.49424427  .00000060  00000-0  12798-4 0  9997,2 55784  70.0001 313.1422 0003232 270.2008  89.8780 14.98324616 75022,6950.21,96.107,574.321,569.828,0.0
55784.0,STARLINK-5797,PAYLOAD,2024-07-03 18:16:14,14.98332647,0.0003195,70.0007,312.4704,271.3692,88.7101,4.6504e-05,4.62e-06,0.0,0 STARLINK-5797,1 55784U 23028AV  24185.76127846  .00000462  00000-0  46504-4 0  9990,2 55784  70.0007 312.4704 0003195 271.3692  88.7101 14.98332647 75064,6950.185,96.107,574.27,569.829,0.0
55784.0,STARLINK-5797,PAYLOAD,2024-07-04 11:53:43,14.98323285,0.0003121,70.0005,310.6178,270.2162,89.864,8.6779e-05,9.42e-06,0.0,0 STARLINK-5797,1 55784U 23028AV  24186.49564290  .00000942  00000-0  86779-4 0  9990,2 55784  70.0005 310.6178 0003121 270.2162  89.8640 14.98323285 75176,6950.214,96.107,574.248,569.909,0.0
55784.0,STARLINK-5797,PAYLOAD,2024-07-04 15:05:59,14.98329773,0.0002959,70.0006,310.2806,267.3014,92.7807,7.7986e-05,8.38e-06,0.0,0 STARLINK-5797,1 55784U 23028AV  24186.62915940  .00000838  00000-0  77986-4 0  9991,2 55784  70.0006 310.2806 0002959 267.3014  92.7807 14.98329773 75190,6950.194,96.107,574.115,570.002,0.0
55784.0,STARLINK-5797,PAYLOAD,2024-07-04 18:18:15,14.98331612,0.0003139,70.0006,309.9441,270.896,89.1839,0.00010185,1.123e-05,0.0,0 STARLINK-5797,1 55784U 23028AV  24186.76267754  .00001123  00000-0  10185-3 0  9994,2 55784  70.0006 309.9441 0003139 270.8960  89.1839 14.98331612 75213,6950.188,96.107,574.235,569.871,0.0
55784.0,STARLINK-5797,PAYLOAD,2024-07-05 15:07:59,14.98335745,0.0003148,70.0006,307.7562,271.5606,88.5193,0.00010048,1.106e-05,0.0,0 STARLINK-5797,1 55784U 23028AV  24187.63055361  .00001106  00000-0  10048-3 0  9999,2 55784  70.0006 307.7562 0003148 271.5606  88.5193 14.98335745 75349,6950.175,96.107,574.228,569.852,0.0
55784.0,STARLINK-5797,PAYLOAD,2024-07-05 18:20:15,14.9833672,0.0003119,70.0006,307.4196,271.2304,88.8497,0.00010841,1.201e-05,0.0,0 STARLINK-5797,1 55784U 23028AV  24187.76407227  .00001201  00000-0  10841-3 0  9992,2 55784  70.0006 307.4196 0003119 271.2304  88.8497 14.98336720 75365,6950.172,96.107,574.205,569.869,0.0
55784.0,STARLINK-5797,PAYLOAD,2024-07-06 11:57:45,14.98325365,0.0002995,70.0012,305.5692,269.225,90.8566,-1.0714e-05,-2.21e-06,0.0,0 STARLINK-5797,1 55784U 23028AV  24188.49844175 -.00000221  00000-0 -10714-4 0  9993,2 55784  70.0012 305.5692 0002995 269.2250  90.8566 14.98325365 75475,6950.207,96.107,574.154,569.991,0.0
55784.0,STARLINK-5797,PAYLOAD,2024-07-06 13:33:54,14.98285525,0.0003062,70.0011,305.401,264.3603,95.7207,0.00067873,8.006e-05,0.0,0 STARLINK-5797,1 55784U 23028AV  24188.56521209  .00008006  00000-0  67873-3 0  9995,2 55784  70.0011 305.4010 0003062 264.3603  95.7207 14.98285525 75481,6950.33,96.11,574.324,570.067,0.0
55784.0,STARLINK-5797,PAYLOAD,2024-07-06 18:22:17,14.98327783,0.000283,70.0012,304.8961,266.4082,93.6753,-4.4057e-05,-6.19e-06,0.0,0 STARLINK-5797,1 55784U 23028AV  24188.76548161 -.00000619  00000-0 -44057-4 0  9997,2 55784  70.0012 304.8961 0002830 266.4082  93.6753 14.98327783 75516,6950.2,96.107,574.032,570.098,0.0
55784.0,STARLINK-5797,PAYLOAD,2024-07-07 11:59:46,14.98332382,0.0002893,70.0011,303.0442,266.394,93.6888,-3.5294e-05,-5.14e-06,0.0,0 STARLINK-5797,1 55784U 23028AV  24189.49983822 -.00000514  00000-0 -35294-4 0  9992,2 55784  70.0011 303.0442 0002893 266.3940  93.6888 14.98332382 75623,6950.186,96.107,574.061,570.04,0.0
55784.0,STARLINK-5797,PAYLOAD,2024-07-08 13:37:55,14.98327873,0.0002975,70.0008,300.3505,265.9844,94.0975,3.4089e-05,3.14e-06,0.0,0 STARLINK-5797,1 55784U 23028AV  24190.56799888  .00000314  00000-0  34089-4 0  9996,2 55784  70.0008 300.3505 0002975 265.9844  94.0975 14.98327873 75786,6950.199,96.107,574.132,569.997,0.0
55784.0,STARLINK-5797,PAYLOAD,2024-07-08 16:50:11,14.98329746,0.000296,70.0008,300.0137,266.4471,93.635,5.3039e-05,5.4e-06,0.0,0 STARLINK-5797,1 55784U 23028AV  24190.70151730  .00000540  00000-0  53039-4 0  9997,2 55784  70.0008 300.0137 0002960 266.4471  93.6350 14.98329746 75806,6950.194,96.107,574.116,570.001,0.0
55784.0,STARLINK-5797,PAYLOAD,2024-07-09 13:39:55,14.98333657,0.0003228,69.9999,297.8247,270.1849,89.894,2.3821e-05,1.91e-06,0.0,0 STARLINK-5797,1 55784U 23028AV  24191.56939490  .00000191  00000-0  23821-4 0  9997,2 55784  69.9999 297.8247 0003228 270.1849  89.8940 14.98333657 75938,6950.182,96.107,574.29,569.803,0.0
55784.0,STARLINK-5797,PAYLOAD,2024-07-09 16:52:11,14.9833381,0.0002935,70.0006,297.489,264.8292,95.2532,4.5376e-05,4.49e-06,0.0,0 STARLINK-5797,1 55784U 23028AV  24191.70291398  .00000449  00000-0  45376-4 0  9996,2 55784  70.0006 297.4890 0002935 264.8292  95.2532 14.98333810 75957,6950.181,96.107,574.086,570.006,0.0
55784.0,STARLINK-5797,PAYLOAD,2024-07-10 13:41:56,14.9833467,0.000301,69.9996,295.2999,269.5987,90.4827,2.5828e-05,2.15e-06,0.0,0 STARLINK-5797,1 55784U 23028AV  24192.57079427  .00000215  00000-0  25828-4 0  9990,2 55784  69.9996 295.2999 0003010 269.5987  90.4827 14.98334670 76080,6950.178,96.107,574.135,569.951,0.0
55784.0,STARLINK-5797,PAYLOAD,2024-07-10 16:54:12,14.98335306,0.0002973,69.9995,294.963,269.7191,90.3628,3.2182e-05,2.91e-06,0.0,0 STARLINK-5797,1 55784U 23028AV  24192.70431330  .00000291  00000-0  32182-4 0  9995,2 55784  69.9995 294.9630 0002973 269.7191  90.3628 14.98335306 76101,6950.176,96.107,574.108,569.975,0.0
55784.0,STARLINK-5797,PAYLOAD,2024-07-11 13:43:57,14.98332744,0.0003103,70.0002,292.7749,270.7482,89.3322,-1.4052e-05,-2.61e-06,0.0,0 STARLINK-5797,1 55784U 23028AV  24193.57219435 -.00000261  00000-0 -14052-4 0  9996,2 55784  70.0002 292.7749 0003103 270.7482  89.3322 14.98332744 76237,6950.184,96.107,574.206,569.893,0.0
55784.0,STARLINK-5797,PAYLOAD,2024-07-11 16:56:13,14.98334782,0.0003137,69.9997,292.438,271.5948,88.4852,5.0074e-06,-3.3e-07,0.0,0 STARLINK-5797,1 55784U 23028AV  24193.70571228 -.00000033  00000-0  50074-5 0  9993,2 55784  69.9997 292.4380 0003137 271.5948  88.4852 14.98334782 76252,6950.178,96.107,574.223,569.863,0.0
55784.0,STARLINK-5797,PAYLOAD,2024-07-12 12:09:50,14.98327471,0.0002889,70.0006,290.4189,270.0757,90.0071,1.2092e-05,5.1e-07,0.0,0 STARLINK-5797,1 55784U 23028AV  24194.50683684  .00000051  00000-0  12092-4 0  9998,2 55784  70.0006 290.4189 0002889 270.0757  90.0071 14.98327471 76378,6950.201,96.107,574.074,570.058,0.0
55784.0,STARLINK-5797,PAYLOAD,2024-07-12 13:45:59,14.9831101,0.0002852,70.0006,290.2505,267.7462,92.337,0.00027905,3.236e-05,0.0,0 STARLINK-5797,1 55784U 23028AV  24194.57360014  .00003236  00000-0  27905-3 0  9990,2 55784  70.0006 290.2505 0002852 267.7462  92.3370 14.98311010 76384,6950.252,96.108,574.099,570.134,0.0
55784.0,STARLINK-5797,PAYLOAD,2024-07-12 15:22:06,14.98327486,0.0002865,70.0006,290.0823,269.2018,90.8813,3.1365e-05,2.81e-06,0.0,0 STARLINK-5797,1 55784U 23028AV  24194.64035641  .00000281  00000-0  31365-4 0  9996,2 55784  70.0006 290.0823 0002865 269.2018  90.8813 14.98327486 76393,6950.201,96.107,574.057,570.074,0.0
55784.0,STARLINK-5797,PAYLOAD,2024-07-13 12:11:51,14.98331204,0.0002915,70.0006,287.8945,268.6534,91.4291,-5.3131e-07,-9.9e-07,0.0,0 STARLINK-5797,1 55784U 23028AV  24195.50823359 -.00000099  00000-0 -53131-6 0  9999,2 55784  70.0006 287.8945 0002915 268.6534  91.4291 14.98331204 76529,6950.189,96.107,574.08,570.028,0.0
55784.0,STARLINK-5797,PAYLOAD,2024-07-13 13:47:59,14.9833019,0.0002939,70.0006,287.7263,267.8963,92.186,-1.2033e-05,-2.37e-06,0.0,0 STARLINK-5797,1 55784U 23028AV  24195.57499445 -.00000237  00000-0 -12033-4 0  9999,2 55784  70.0006 287.7263 0002939 267.8963  92.1860 14.98330190 76538,6950.192,96.107,574.1,570.015,0.0
55784.0,STARLINK-5797,PAYLOAD,2024-07-13 15:24:07,14.98330992,0.0002933,70.0006,287.558,268.2676,91.8147,-2.7789e-06,-1.26e-06,0.0,0 STARLINK-5797,1 55784U 23028AV  24195.64175367 -.00000126  00000-0 -27789-5 0  9993,2 55784  70.0006 287.5580 0002933 268.2676  91.8147 14.98330992 76543,6950.19,96.107,574.093,570.016,0.0
55784.0,STARLINK-5797,PAYLOAD,2024-07-14 12:13:50,14.9834511,0.0002994,70.0004,285.3699,267.6516,92.43,0.00016084,1.827e-05,0.0,0 STARLINK-5797,1 55784U 23028AV  24196.50961716  .00001827  00000-0  16084-3 0  9991,2 55784  70.0004 285.3699 0002994 267.6516  92.4300 14.98345110 76671,6950.146,96.106,574.092,569.93,0.0
